[{"OBJECT_NAME":"STARLINK-5612","OBJECT_ID":"2023-028P","EPOCH":"2026-03-09T21:34:38.158464","MEAN_MOTION":14.98331533,"ECCENTRICITY":0.00029939,"INCLINATION":69.9996,"RA_OF_ASC_NODE":243.8394,"ARG_OF_PERICENTER":269.4105,"MEAN_ANOMALY":90.6711,"EPHEMERIS_TYPE":0,"CLASSIFICATION_TYPE":"U","NORAD_CAT_ID":55754,"ELEMENT_SET_NO":999,"REV_AT_EPOCH":16607,"BSTAR":-2.0997489e-5,"MEAN_MOTION_DOT":-3.44e-6,"MEAN_MOTION_DDOT":0},{"OBJECT_NAME":"PSLV DEB","OBJECT_ID":"2001-049NQ","EPOCH":"2026-03-09T02:43:10.058304","MEAN_MOTION":14.89489046,"ECCENTRICITY":0.00529867,"INCLINATION":98.0964,"RA_OF_ASC_NODE":127.0334,"ARG_OF_PERICENTER":97.8554,"MEAN_ANOMALY":262.8682,"EPHEMERIS_TYPE":0,"CLASSIFICATION_TYPE":"U","NORAD_CAT_ID":27653,"ELEMENT_SET_NO":999,"REV_AT_EPOCH":27440,"BSTAR":0.00043563035,"MEAN_MOTION_DOT":4.198e-5,"MEAN_MOTION_DDOT":0}]
